ONEWEB-0116             
1 48046U 21025E   25088.85891502  .00000187  00000+0  47597-3 0  9993
2 48046  87.8949  48.5069 0002066  80.1845 279.9518 13.13471205195329
ONEWEB-0150             
1 48047U 21025F   25088.91137208 -.00000263  00000+0 -75612-3 0  9993
2 48047  87.8948  48.4987 0001774  84.5862 275.5470 13.13469925195223
ONEWEB-0107             
1 48048U 21025G   25088.83689192 -.00000114  00000+0 -34649-3 0  9999
2 48048  87.8948  48.5110 0001569  79.9337 280.1969 13.13470880195193
ONEWEB-0101             
1 48049U 21025H   25088.34259128  .00000260  00000+0  67824-3 0  9999
2 48049  87.8948  48.6430 0001835  77.2887 282.8447 13.13471929195103
ONEWEB-0113             
1 48050U 21025J   25088.83945999 -.00000215  00000+0 -62003-3 0  9999
2 48050  87.8949  48.5170 0001967  84.3802 275.7552 13.13988557195252
ONEWEB-0112             
1 48051U 21025K   25088.38491247 -.00000192  00000+0 -55944-3 0  9992
2 48051  87.8943  48.5989 0001849  84.3775 275.7565 13.13471228195204
ONEWEB-0156             
1 48052U 21025L   25088.39337133 -.00000030  00000+0 -11807-3 0  9998
2 48052  87.8946  48.6050 0001782  83.4287 276.7045 13.13470786195181
ONEWEB-0161             
1 48053U 21025M   25088.90122577 -.00000171  00000+0 -50416-3 0  9995
2 48053  87.8953  48.5189 0001700  81.8942 278.2379 13.13470508195192
